{"type": "FeatureCollection", "features": [{"type": "Feature", "properties": {"kind": "runway", "id": "07L/25R"}, "geometry": {"type": "LineString", "coordinates": [[-112.0894517, 33.68916], [-112.0746956, 33.6900202]]}}, {"type": "Feature", "properties": {"kind": "runway", "id": "07R/25L"}, "geometry": {"type": "LineString", "coordinates": [[-112.0962689, 33.6868342], [-112.0693934, 33.6884008]]}}, {"type": "Feature", "properties": {"kind": "leg", "runway": "25L", "leg": "UPWIND", "hdg_deg": 266.0}, "geometry": {"type": "LineString", "coordinates": [[-112.0962689, 33.6868342], [-112.10596166536949, 33.68626919893108]]}}, {"type": "Feature", "properties": {"kind": "leg", "runway": "25L", "leg": "CROSSWIND", "hdg_deg": 176.0}, "geometry": {"type": "LineString", "coordinates": [[-112.10596166536949, 33.68626919893108], [-112.10482994400606, 33.67282747552468]]}}, {"type": "Feature", "properties": {"kind": "leg", "runway": "25L", "leg": "DOWNWIND", "hdg_deg": 86.0}, "geometry": {"type": "LineString", "coordinates": [[-112.10482994400606, 33.67282747552468], [-112.0424143043179, 33.67646574611072]]}}, {"type": "Feature", "properties": {"kind": "leg", "runway": "25L", "leg": "BASE", "hdg_deg": 356.0}, "geometry": {"type": "LineString", "coordinates": [[-112.0424143043179, 33.67646574611072], [-112.04354602568134, 33.689907469517124]]}}, {"type": "Feature", "properties": {"kind": "leg", "runway": "25L", "leg": "FINAL", "hdg_deg": 266.0}, "geometry": {"type": "LineString", "coordinates": [[-112.04354602568134, 33.689907469517124], [-112.0693934, 33.6884008]]}}, {"type": "Feature", "properties": {"kind": "leg", "runway": "25L", "leg": "STRAIGHT_IN", "hdg_deg": 266.0}, "geometry": {"type": "LineString", "coordinates": [[-111.9940052249039, 33.69279525275828], [-112.0693934, 33.6884008]]}}, {"type": "Feature", "properties": {"kind": "leg", "runway": "25R", "leg": "UPWIND", "hdg_deg": 266.0}, "geometry": {"type": "LineString", "coordinates": [[-112.0894517, 33.68916], [-112.09914446250492, 33.68859496490897]]}}, {"type": "Feature", "properties": {"kind": "leg", "runway": "25R", "leg": "CROSSWIND", "hdg_deg": 356.0}, "geometry": {"type": "LineString", "coordinates": [[-112.09914446250492, 33.68859496490897], [-112.1002762520161, 33.70203668434286]]}}, {"type": "Feature", "properties": {"kind": "leg", "runway": "25R", "leg": "DOWNWIND", "hdg_deg": 86.0}, "geometry": {"type": "LineString", "coordinates": [[-112.1002762520161, 33.70203668434286], [-112.04998002283136, 33.704968679676625]]}}, {"type": "Feature", "properties": {"kind": "leg", "runway": "25R", "leg": "BASE", "hdg_deg": 176.0}, "geometry": {"type": "LineString", "coordinates": [[-112.04998002283136, 33.704968679676625], [-112.04884823332019, 33.69152696024274]]}}, {"type": "Feature", "properties": {"kind": "leg", "runway": "25R", "leg": "FINAL", "hdg_deg": 266.0}, "geometry": {"type": "LineString", "coordinates": [[-112.04884823332019, 33.69152696024274], [-112.0746956, 33.6900202]]}}, {"type": "Feature", "properties": {"kind": "leg", "runway": "25R", "leg": "STRAIGHT_IN", "hdg_deg": 266.0}, "geometry": {"type": "LineString", "coordinates": [[-111.99930744718387, 33.694414917374665], [-112.0746956, 33.6900202]]}}]}